NORAD_CAT_ID,OBJECT_NAME,OBJECT_TYPE,EPOCH,MEAN_MOTION,ECCENTRICITY,INCLINATION,RA_OF_ASC_NODE,ARG_OF_PERICENTER,MEAN_ANOMALY,BSTAR,MEAN_MOTION_DOT,MEAN_MOTION_DDOT,TLE_LINE0,TLE_LINE1,TLE_LINE2,SEMIMAJOR_AXIS,PERIOD,APOGEE,PERIGEE,DECAYED
56786.0,STARLINK-6341,PAYLOAD,2024-01-12 19:11:55,14.98323253,0.0002636,70.0006,148.5421,268.6632,91.4225,-1.6808e-05,-2.93e-06,0.0,0 STARLINK-6341,1 56786U 23078V   24012.79994564 -.00000293  00000-0 -16808-4 0  9997,2 56786  70.0006 148.5421 0002636 268.6632  91.4225 14.98323253 35306,6950.214,96.107,573.911,570.247,0.0
56786.0,STARLINK-6341,PAYLOAD,2024-01-13 11:13:15,14.98328035,0.0003008,69.9995,146.8595,270.3302,89.7512,-2.5585e-05,-3.98e-06,0.0,0 STARLINK-6341,1 56786U 23078V   24013.46754156 -.00000398  00000-0 -25585-4 0  9991,2 56786  69.9995 146.8595 0003008 270.3302  89.7512 14.98328035 35662,6950.199,96.107,574.155,569.973,0.0
56786.0,STARLINK-6341,PAYLOAD,2024-01-13 14:25:31,14.98327145,0.0002914,69.9998,146.5229,270.7193,89.3632,-9.9853e-06,-2.12e-06,0.0,0 STARLINK-6341,1 56786U 23078V   24013.60106211 -.00000212  00000-0 -99853-5 0  9995,2 56786  69.9998 146.5229 0002914 270.7193  89.3632 14.98327145 35427,6950.202,96.107,574.092,570.041,0.0
56786.0,STARLINK-6341,PAYLOAD,2024-01-13 19:13:55,14.98333594,0.0002846,69.9998,146.0176,269.0016,91.0817,4.6446e-05,4.61e-06,0.0,0 STARLINK-6341,1 56786U 23078V   24013.80133628  .00000461  00000-0  46446-4 0  9992,2 56786  69.9998 146.0176 0002846 269.0016  91.0817 14.98333594 35714,6950.182,96.107,574.025,570.069,0.0
56786.0,STARLINK-6341,PAYLOAD,2024-01-14 14:27:32,14.98326281,0.0003027,69.9994,143.9981,260.2885,99.7932,7.8842e-05,8.48e-06,0.0,0 STARLINK-6341,1 56786U 23078V   24014.60245923  .00000848  00000-0  78842-4 0  9997,2 56786  69.9994 143.9981 0003027 260.2885  99.7932 14.98326281 35571,6950.204,96.107,574.173,569.966,0.0
56786.0,STARLINK-6341,PAYLOAD,2024-01-14 17:39:49,14.98324389,0.0003051,69.9991,143.6617,256.5846,103.4973,-8.6257e-05,-1.122e-05,0.0,0 STARLINK-6341,1 56786U 23078V   24014.73598520 -.00001122  00000-0 -86257-4 0  9992,2 56786  69.9991 143.6617 0003051 256.5846 103.4973 14.98324389 35859,6950.21,96.107,574.196,569.955,0.0
56786.0,STARLINK-6341,PAYLOAD,2024-01-15 14:29:33,14.98333451,0.0003231,69.9994,141.4728,272.0109,88.068,2.3393e-05,1.86e-06,0.0,0 STARLINK-6341,1 56786U 23078V   24015.60385796  .00000186  00000-0  23393-4 0  9997,2 56786  69.9994 141.4728 0003231 272.0109  88.0680 14.98333451 35725,6950.182,96.107,574.293,569.802,0.0
56786.0,STARLINK-6341,PAYLOAD,2024-01-15 17:41:48,14.98337305,0.0003226,69.9996,141.1387,272.3591,87.7199,0.00018749,2.145e-05,0.0,0 STARLINK-6341,1 56786U 23078V   24015.73737083  .00002145  00000-0  18749-3 0  9996,2 56786  69.9996 141.1387 0003226 272.3591  87.7199 14.98337305 36002,6950.17,96.107,574.277,569.793,0.0
56786.0,STARLINK-6341,PAYLOAD,2024-01-16 11:19:18,14.98328985,0.0002572,70.002,139.2889,250.8765,109.2115,-3.1387e-05,-4.67e-06,0.0,0 STARLINK-6341,1 56786U 23078V   24016.47173991 -.00000467  00000-0 -31387-4 0  9991,2 56786  70.0020 139.2889 0002572 250.8765 109.2115 14.98328985 36119,6950.196,96.107,573.849,570.273,0.0
56786.0,STARLINK-6341,PAYLOAD,2024-01-16 14:31:34,14.9832614,0.0002625,70.002,138.9525,245.9004,114.1881,-1.4238e-05,-2.63e-06,0.0,0 STARLINK-6341,1 56786U 23078V   24016.60526119 -.00000263  00000-0 -14238-4 0  9990,2 56786  70.0020 138.9525 0002625 245.9004 114.1881 14.98326140 35870,6950.205,96.107,573.894,570.245,0.0
56786.0,STARLINK-6341,PAYLOAD,2024-01-16 17:43:50,14.98325858,0.0002633,70.0017,138.615,251.8496,108.2376,-6.1405e-05,-8.25e-06,0.0,0 STARLINK-6341,1 56786U 23078V   24016.73878299 -.00000825  00000-0 -61405-4 0  9995,2 56786  70.0017 138.6150 0002633 251.8496 108.2376 14.98325858 35897,6950.206,96.107,573.901,570.241,0.0
56786.0,STARLINK-6341,PAYLOAD,2024-01-17 11:21:19,14.98333403,0.0002932,70.0011,136.7642,261.7956,98.2871,-4.8969e-05,-6.77e-06,0.0,0 STARLINK-6341,1 56786U 23078V   24017.47313797 -.00000677  00000-0 -48969-4 0  9999,2 56786  70.0011 136.7642 0002932 261.7956  98.2871 14.98333403 36264,6950.182,96.107,574.085,570.01,0.0
56786.0,STARLINK-6341,PAYLOAD,2024-01-17 14:33:35,14.98332817,0.0002884,70.0005,136.4258,261.5019,98.5814,-5.3311e-05,-7.29e-06,0.0,0 STARLINK-6341,1 56786U 23078V   24017.60665827 -.00000729  00000-0 -53311-4 0  9993,2 56786  70.0005 136.4258 0002884 261.5019  98.5814 14.98332817 36023,6950.184,96.107,574.054,570.045,0.0
56786.0,STARLINK-6341,PAYLOAD,2024-01-17 17:45:51,14.98333796,0.0002933,70.0005,136.0895,262.2933,97.7893,-5.1104e-05,-7.03e-06,0.0,0 STARLINK-6341,1 56786U 23078V   24017.74017723 -.00000703  00000-0 -51104-4 0  9994,2 56786  70.0005 136.0895 0002933 262.2933  97.7893 14.98333796 36041,6950.181,96.107,574.085,570.008,0.0
56786.0,STARLINK-6341,PAYLOAD,2024-01-18 11:23:20,14.98327495,0.0002882,70.0004,134.2371,259.8214,100.262,5.7079e-06,-2.5e-07,0.0,0 STARLINK-6341,1 56786U 23078V   24018.47453940 -.00000025  00000-0  57079-5 0  9994,2 56786  70.0004 134.2371 0002882 259.8214 100.2620 14.98327495 36414,6950.201,96.107,574.069,570.063,0.0
56786.0,STARLINK-6341,PAYLOAD,2024-01-18 14:35:36,14.983295,0.0002826,70.0005,133.9002,258.9152,101.1689,3.2861e-05,2.99e-06,0.0,0 STARLINK-6341,1 56786U 23078V   24018.60805743  .00000299  00000-0  32861-4 0  9994,2 56786  70.0005 133.9002 0002826 258.9152 101.1689 14.98329500 36178,6950.194,96.107,574.024,570.095,0.0
56786.0,STARLINK-6341,PAYLOAD,2024-01-18 17:47:52,14.98331893,0.0002804,70.0006,133.5636,258.7852,101.2992,5.8083e-05,6e-06,0.0,0 STARLINK-6341,1 56786U 23078V   24018.74157507  .00000600  00000-0  58083-4 0  9997,2 56786  70.0006 133.5636 0002804 258.7852 101.2992 14.98331893 36197,6950.187,96.107,574.001,570.103,0.0
56786.0,STARLINK-6341,PAYLOAD,2024-01-19 14:37:36,14.98333941,0.0002667,70.0007,131.375,262.881,97.2046,6.0998e-05,6.35e-06,0.0,0 STARLINK-6341,1 56786U 23078V   24019.60945208  .00000635  00000-0  60998-4 0  9992,2 56786  70.0007 131.3750 0002667 262.8810  97.2046 14.98333941 36323,6950.181,96.107,573.899,570.192,0.0
56786.0,STARLINK-6341,PAYLOAD,2024-01-19 17:49:52,14.98336078,0.000266,70.0008,131.0385,263.6405,96.4451,8.1063e-05,8.75e-06,0.0,0 STARLINK-6341,1 56786U 23078V   24019.74296974  .00000875  00000-0  81063-4 0  9998,2 56786  70.0008 131.0385 0002660 263.6405  96.4451 14.98336078 36603,6950.174,96.107,573.888,570.19,0.0
56786.0,STARLINK-6341,PAYLOAD,2024-01-20 11:27:21,14.98327244,0.0002428,70.0018,129.1879,256.3075,103.7814,-1.4328e-05,-2.64e-06,0.0,0 STARLINK-6341,1 56786U 23078V   24020.47733696 -.00000264  00000-0 -14328-4 0  9991,2 56786  70.0018 129.1879 0002428 256.3075 103.7814 14.98327244 36716,6950.201,96.107,573.754,570.379,0.0
56786.0,STARLINK-6341,PAYLOAD,2024-01-20 14:39:37,14.9834953,0.0002433,70.0011,128.8505,256.1684,103.9205,-0.00046491,-5.638e-05,0.0,0 STARLINK-6341,1 56786U 23078V   24020.61085369 -.00005638  00000-0 -46491-3 0  9999,2 56786  70.0011 128.8505 0002433 256.1684 103.9205 14.98349530 36472,6950.132,96.106,573.688,570.307,0.0
56786.0,STARLINK-6341,PAYLOAD,2024-01-20 16:15:45,14.98352577,0.0002459,70.0011,128.6822,256.9661,103.1224,-0.00051836,-6.276e-05,0.0,0 STARLINK-6341,1 56786U 23078V   24020.67761227 -.00006276  00000-0 -51836-3 0  9997,2 56786  70.0011 128.6822 0002459 256.9661 103.1224 14.98352577 36741,6950.123,96.106,573.697,570.279,0.0
56786.0,STARLINK-6341,PAYLOAD,2024-01-21 06:40:58,14.98333193,0.0003067,69.9996,127.1659,269.3835,90.6973,-6.3e-05,-8.45e-06,0.0,0 STARLINK-6341,1 56786U 23078V   24021.27845377 -.00000845  00000-0 -63000-4 0  9996,2 56786  69.9996 127.1659 0003067 269.3835  90.6973 14.98333193 36574,6950.183,96.107,574.18,569.916,0.0
56786.0,STARLINK-6341,PAYLOAD,2024-01-21 11:29:22,14.98334061,0.000298,70.0,126.6614,265.991,94.0908,-4.2855e-05,-6.04e-06,0.0,0 STARLINK-6341,1 56786U 23078V   24021.47873197 -.00000604  00000-0 -42855-4 0  9997,2 56786  70.0000 126.6614 0002980 265.9910  94.0908 14.98334061 36860,6950.18,96.107,574.116,569.974,0.0
56786.0,STARLINK-6341,PAYLOAD,2024-01-21 16:17:46,14.98336128,0.0002828,70.0004,126.1569,260.0338,100.0502,2.236e-05,1.74e-06,0.0,0 STARLINK-6341,1 56786U 23078V   24021.67900785  .00000174  00000-0  22360-4 0  9992,2 56786  70.0004 126.1569 0002828 260.0338 100.0502 14.98336128 36638,6950.174,96.107,574.004,570.073,0.0
56786.0,STARLINK-6341,PAYLOAD,2024-01-22 06:42:59,14.98323164,0.0002683,70.0008,124.6425,252.9117,107.1748,7.0882e-06,-8e-08,0.0,0 STARLINK-6341,1 56786U 23078V   24022.27985573 -.00000008  00000-0  70882-5 0  9997,2 56786  70.0008 124.6425 0002683 252.9117 107.1748 14.98323164 36726,6950.214,96.107,573.944,570.214,0.0
56786.0,STARLINK-6341,PAYLOAD,2024-01-22 11:31:25,14.98298365,0.0003113,69.9997,124.1366,268.0286,92.0516,-0.00028938,-3.541e-05,0.0,0 STARLINK-6341,1 56786U 23078V   24022.48016097 -.00003541  00000-0 -28938-3 0  9995,2 56786  69.9997 124.1366 0003113 268.0286  92.0516 14.98298365 37015,6950.291,96.109,574.319,569.992,0.0
56786.0,STARLINK-6341,PAYLOAD,2024-01-22 16:19:50,14.98297589,0.0002824,70.0002,123.6323,257.2467,102.8377,-0.00027904,-3.418e-05,0.0,0 STARLINK-6341,1 56786U 23078V   24022.68044434 -.00003418  00000-0 -27904-3 0  9998,2 56786  70.0002 123.6323 0002824 257.2467 102.8377 14.98297589 36786,6950.293,96.109,574.121,570.195,0.0
56786.0,STARLINK-6341,PAYLOAD,2024-01-23 06:45:01,14.9831898,0.0002584,70.002,122.1202,257.3859,102.7011,-5.3921e-05,-7.36e-06,0.0,0 STARLINK-6341,1 56786U 23078V   24023.28127129 -.00000736  00000-0 -53921-4 0  9997,2 56786  70.0020 122.1202 0002584 257.3859 102.7011 14.98318980 36878,6950.227,96.108,573.888,570.296,0.0
56786.0,STARLINK-6341,PAYLOAD,2024-01-23 11:33:25,14.98329543,0.0002583,70.0019,121.6157,231.2791,128.8137,5.7208e-05,5.9e-06,0.0,0 STARLINK-6341,1 56786U 23078V   24023.48154159  .00000590  00000-0  57208-4 0  9990,2 56786  70.0019 121.6157 0002583 231.2791 128.8137 14.98329543 37162,6950.194,96.107,573.855,570.264,0.0
